start=new Date('2022-11-23T00:00:00.000Z').valueOf();
sats=[{"OBJECT_NAME":"STARLINK-4276","LAUNCH_DATE":"2022-07-17","TLE_LINE1":"1 53179U 22083AZ  22326.91667824  .00078529  00000-0  55876-3 0  9993","COUNTRY_CODE":"US","MEAN_ANOMALY":"191.2749","PERIOD":"91.536","CENTER_NAME":"EARTH","REV_AT_EPOCH":"130","MEAN_MOTION_DDOT":"0.0000000000000","BSTAR":"0.00055876000000","INCLINATION":"53.2111","DECAY_DATE":null,"SEMIMAJOR_AXIS":"6728.043","PERIAPSIS":"343.836","MEAN_MOTION":"15.73148282","RCS_SIZE":"LARGE","EPOCH":"2022-11-22T22:00:00.999936","EPHEMERIS_TYPE":"0","OBJECT_ID":"2022-083AZ","TLE_LINE2":"2 53179  53.2111 131.7448 0009025 287.7323 191.2749 15.73148282  1304","ARG_OF_PERICENTER":"287.7323","ECCENTRICITY":"0.00090250","MEAN_ELEMENT_THEORY":"SGP4","TIME_SYSTEM":"UTC","MEAN_MOTION_DOT":"0.00078529","RA_OF_ASC_NODE":"131.7448","NORAD_CAT_ID":"53179","APOAPSIS":"355.980","OBJECT_TYPE":"PAYLOAD","ELEMENT_SET_NO":"999","GP_ID":"218506561","SITE":"AFETR","CLASSIFICATION_TYPE":"U","FILE":"3667517","REF_FRAME":"TEME"},{"EPOCH":"2022-11-22T22:00:00.999936","RCS_SIZE":"LARGE","MEAN_MOTION":"15.73117832","DECAY_DATE":null,"SEMIMAJOR_AXIS":"6728.129","PERIAPSIS":"343.902","MEAN_ANOMALY":"186.6397","PERIOD":"91.538","CENTER_NAME":"EARTH","MEAN_MOTION_DDOT":"0.0000000000000","BSTAR":"0.00056761000000","REV_AT_EPOCH":"130","INCLINATION":"53.2110","COUNTRY_CODE":"US","LAUNCH_DATE":"2022-07-17","OBJECT_NAME":"STARLINK-4258","TLE_LINE1":"1 53180U 22083BA  22326.91667824  .00079691  00000-0  56761-3 0  9990","CLASSIFICATION_TYPE":"U","SITE":"AFETR","FILE":"3667517","REF_FRAME":"TEME","APOAPSIS":"356.087","OBJECT_TYPE":"PAYLOAD","GP_ID":"218505740","ELEMENT_SET_NO":"999","RA_OF_ASC_NODE":"131.7523","NORAD_CAT_ID":"53180","MEAN_MOTION_DOT":"0.00079691","MEAN_ELEMENT_THEORY":"SGP4","ECCENTRICITY":"0.00090550","TIME_SYSTEM":"UTC","ARG_OF_PERICENTER":"287.6083","EPHEMERIS_TYPE":"0","OBJECT_ID":"2022-083BA","TLE_LINE2":"2 53180  53.2110 131.7523 0009055 287.6083 186.6397 15.73117832  1308"},{"TLE_LINE1":"1 53181U 22083BB  22326.91667824  .00015448  00000-0  11420-3 0  9994","OBJECT_NAME":"STARLINK-4273","LAUNCH_DATE":"2022-07-17","COUNTRY_CODE":"US","MEAN_MOTION_DDOT":"0.0000000000000","BSTAR":"0.00011420000000","REV_AT_EPOCH":"130","INCLINATION":"53.2112","CENTER_NAME":"EARTH","PERIOD":"91.534","MEAN_ANOMALY":"186.4567","PERIAPSIS":"343.799","SEMIMAJOR_AXIS":"6727.954","DECAY_DATE":null,"MEAN_MOTION":"15.73179372","RCS_SIZE":"LARGE","EPOCH":"2022-11-22T22:00:00.999936","TLE_LINE2":"2 53181  53.2112 131.7518 0008948 289.5781 186.4567 15.73179372  1305","OBJECT_ID":"2022-083BB","EPHEMERIS_TYPE":"0","ARG_OF_PERICENTER":"289.5781","TIME_SYSTEM":"UTC","MEAN_ELEMENT_THEORY":"SGP4","ECCENTRICITY":"0.00089480","MEAN_MOTION_DOT":"0.00015448","NORAD_CAT_ID":"53181","RA_OF_ASC_NODE":"131.7518","ELEMENT_SET_NO":"999","GP_ID":"218505904","OBJECT_TYPE":"PAYLOAD","APOAPSIS":"355.839","REF_FRAME":"TEME","FILE":"3667517","CLASSIFICATION_TYPE":"U","SITE":"AFETR"},{"FILE":"3667517","SITE":"AFETR","CLASSIFICATION_TYPE":"U","REF_FRAME":"TEME","APOAPSIS":"540.792","GP_ID":"218506397","ELEMENT_SET_NO":"999","OBJECT_TYPE":"PAYLOAD","RA_OF_ASC_NODE":"138.5795","NORAD_CAT_ID":"53182","MEAN_MOTION_DOT":"0.00045198","MEAN_ELEMENT_THEORY":"SGP4","ECCENTRICITY":"0.00014270","TIME_SYSTEM":"UTC","ARG_OF_PERICENTER":"94.6524","EPHEMERIS_TYPE":"0","TLE_LINE2":"2 53182  53.2124 138.5795 0001427  94.6524 171.5717 15.08820691  1303","OBJECT_ID":"2022-083BC","EPOCH":"2022-11-22T22:00:00.999936","MEAN_MOTION":"15.08820691","RCS_SIZE":"LARGE","DECAY_DATE":null,"PERIAPSIS":"538.817","SEMIMAJOR_AXIS":"6917.939","CENTER_NAME":"EARTH","PERIOD":"95.439","MEAN_ANOMALY":"171.5717","MEAN_MOTION_DDOT":"0.0000000000000","REV_AT_EPOCH":"130","BSTAR":"0.00284130000000","INCLINATION":"53.2124","COUNTRY_CODE":"US","TLE_LINE1":"1 53182U 22083BC  22326.91667824  .00045198  00000-0  28413-2 0  9999","OBJECT_NAME":"STARLINK-4278","LAUNCH_DATE":"2022-07-17"},{"REF_FRAME":"TEME","FILE":"3667517","SITE":"AFETR","CLASSIFICATION_TYPE":"U","NORAD_CAT_ID":"53183","RA_OF_ASC_NODE":"132.1542","ELEMENT_SET_NO":"999","GP_ID":"218506888","OBJECT_TYPE":"PAYLOAD","APOAPSIS":"400.900","TIME_SYSTEM":"UTC","ECCENTRICITY":"0.00015260","MEAN_ELEMENT_THEORY":"SGP4","MEAN_MOTION_DOT":"-0.01045703","TLE_LINE2":"2 53183  53.2160 132.1542 0001526  51.2782 186.0051 15.55787877  1301","OBJECT_ID":"2022-083BD","EPHEMERIS_TYPE":"0","ARG_OF_PERICENTER":"51.2782","RCS_SIZE":"LARGE","MEAN_MOTION":"15.55787877","EPOCH":"2022-11-22T22:00:00.999936","REV_AT_EPOCH":"130","MEAN_MOTION_DDOT":"0.0000000000000","BSTAR":"-0.01634400000000","INCLINATION":"53.2160","CENTER_NAME":"EARTH","PERIOD":"92.558","MEAN_ANOMALY":"186.0051","PERIAPSIS":"398.831","SEMIMAJOR_AXIS":"6778.000","DECAY_DATE":null,"TLE_LINE1":"1 53183U 22083BD  22326.91667824 -.01045703  00000-0 -16344-1 0  9994","OBJECT_NAME":"STARLINK-4268","LAUNCH_DATE":"2022-07-17","COUNTRY_CODE":"US"},{"REF_FRAME":"TEME","CLASSIFICATION_TYPE":"U","SITE":"AFETR","FILE":"3667517","OBJECT_TYPE":"PAYLOAD","GP_ID":"218506068","ELEMENT_SET_NO":"999","APOAPSIS":"355.888","NORAD_CAT_ID":"53184","RA_OF_ASC_NODE":"131.7476","MEAN_MOTION_DOT":"0.00045259","TIME_SYSTEM":"UTC","ECCENTRICITY":"0.00089440","MEAN_ELEMENT_THEORY":"SGP4","ARG_OF_PERICENTER":"288.3065","OBJECT_ID":"2022-083BE","TLE_LINE2":"2 53184  53.2135 131.7476 0008944 288.3065 195.9540 15.73161234  1308","EPHEMERIS_TYPE":"0","EPOCH":"2022-11-22T22:00:00.999936","RCS_SIZE":"LARGE","MEAN_MOTION":"15.73161234","SEMIMAJOR_AXIS":"6728.006","PERIAPSIS":"343.853","DECAY_DATE":null,"REV_AT_EPOCH":"130","MEAN_MOTION_DDOT":"0.0000000000000","BSTAR":"0.00032502000000","INCLINATION":"53.2135","PERIOD":"91.535","MEAN_ANOMALY":"195.9540","CENTER_NAME":"EARTH","COUNTRY_CODE":"US","LAUNCH_DATE":"2022-07-17","OBJECT_NAME":"STARLINK-4257","TLE_LINE1":"1 53184U 22083BE  22326.91667824  .00045259  00000-0  32502-3 0  9994"},{"APOAPSIS":"564.351","OBJECT_TYPE":"PAYLOAD","ELEMENT_SET_NO":"999","GP_ID":"218506232","RA_OF_ASC_NODE":"25.8062","NORAD_CAT_ID":"53189","SITE":"AFWTR","CLASSIFICATION_TYPE":"U","FILE":"3667517","REF_FRAME":"TEME","ARG_OF_PERICENTER":"55.7141","EPHEMERIS_TYPE":"0","OBJECT_ID":"2022-084A","TLE_LINE2":"2 53189  97.6568  25.8062 0001968  55.7141 304.4269 15.01268795 19517","MEAN_MOTION_DOT":"0.00002420","ECCENTRICITY":"0.00019680","MEAN_ELEMENT_THEORY":"SGP4","TIME_SYSTEM":"UTC","EPOCH":"2022-11-22T18:32:14.221248","MEAN_MOTION":"15.01268795","RCS_SIZE":"LARGE","COUNTRY_CODE":"US","LAUNCH_DATE":"2022-07-22","OBJECT_NAME":"STARLINK-4391","TLE_LINE1":"1 53189U 22084A   22326.77238682  .00002420  00000-0  19286-3 0  9997","DECAY_DATE":null,"SEMIMAJOR_AXIS":"6941.120","PERIAPSIS":"561.619","PERIOD":"95.919","MEAN_ANOMALY":"304.4269","CENTER_NAME":"EARTH","REV_AT_EPOCH":"1951","MEAN_MOTION_DDOT":"0.0000000000000","BSTAR":"0.00019286000000","INCLINATION":"97.6568"},{"CENTER_NAME":"EARTH","MEAN_ANOMALY":"249.7473","PERIOD":"95.920","BSTAR":"0.00006139900000","MEAN_MOTION_DDOT":"0.0000000000000","REV_AT_EPOCH":"1950","INCLINATION":"97.6560","DECAY_DATE":null,"PERIAPSIS":"561.836","SEMIMAJOR_AXIS":"6941.151","TLE_LINE1":"1 53190U 22084B   22326.73560998  .00000730  00000-0  61399-4 0  9998","LAUNCH_DATE":"2022-07-22","OBJECT_NAME":"STARLINK-4332","COUNTRY_CODE":"US","RCS_SIZE":"LARGE","MEAN_MOTION":"15.01258668","EPOCH":"2022-11-22T17:39:16.702272","ECCENTRICITY":"0.00017000","MEAN_ELEMENT_THEORY":"SGP4","TIME_SYSTEM":"UTC","MEAN_MOTION_DOT":"0.00000730","EPHEMERIS_TYPE":"0","TLE_LINE2":"2 53190  97.6560  25.7392 0001700 110.3934 249.7473 15.01258668 19503","OBJECT_ID":"2022-084B","ARG_OF_PERICENTER":"110.3934","FILE":"3667517","CLASSIFICATION_TYPE":"U","SITE":"AFWTR","REF_FRAME":"TEME","RA_OF_ASC_NODE":"25.7392","NORAD_CAT_ID":"53190","APOAPSIS":"564.196","GP_ID":"218506725","ELEMENT_SET_NO":"999","OBJECT_TYPE":"PAYLOAD"},{"RA_OF_ASC_NODE":"25.7096","NORAD_CAT_ID":"53191","APOAPSIS":"564.387","ELEMENT_SET_NO":"999","GP_ID":"218506562","OBJECT_TYPE":"PAYLOAD","FILE":"3667517","CLASSIFICATION_TYPE":"U","SITE":"AFWTR","REF_FRAME":"TEME","EPHEMERIS_TYPE":"0","TLE_LINE2":"2 53191  97.6538  25.7096 0001944  51.9027 308.2372 15.01251542 18820","OBJECT_ID":"2022-084C","ARG_OF_PERICENTER":"51.9027","MEAN_ELEMENT_THEORY":"SGP4","ECCENTRICITY":"0.00019440","TIME_SYSTEM":"UTC","MEAN_MOTION_DOT":"0.00000567","MEAN_MOTION":"15.01251542","RCS_SIZE":"LARGE","EPOCH":"2022-11-22T16:48:16.247520","TLE_LINE1":"1 53191U 22084C   22326.70018805  .00000567  00000-0  48730-4 0  9993","OBJECT_NAME":"STARLINK-4369","LAUNCH_DATE":"2022-07-22","COUNTRY_CODE":"US","CENTER_NAME":"EARTH","PERIOD":"95.920","MEAN_ANOMALY":"308.2372","BSTAR":"0.00004873000000","MEAN_MOTION_DDOT":"0.0000000000000","REV_AT_EPOCH":"1882","INCLINATION":"97.6538","DECAY_DATE":null,"PERIAPSIS":"561.689","SEMIMAJOR_AXIS":"6941.173"},{"COUNTRY_CODE":"US","TLE_LINE1":"1 53192U 22084D   22326.76498945  .00002649  00000-0  21081-3 0  9999","LAUNCH_DATE":"2022-07-22","OBJECT_NAME":"STARLINK-4375","DECAY_DATE":null,"PERIAPSIS":"561.889","SEMIMAJOR_AXIS":"6941.194","CENTER_NAME":"EARTH","MEAN_ANOMALY":"274.8129","PERIOD":"95.920","MEAN_MOTION_DDOT":"0.0000000000000","BSTAR":"0.00021081000000","INCLINATION":"97.6544","REV_AT_EPOCH":"1950","EPOCH":"2022-11-22T18:21:35.088480","MEAN_MOTION":"15.01244586","RCS_SIZE":"LARGE","ARG_OF_PERICENTER":"85.3287","EPHEMERIS_TYPE":"0","TLE_LINE2":"2 53192  97.6544  25.7728 0001686  85.3287 274.8129 15.01244586 19506","OBJECT_ID":"2022-084D","MEAN_MOTION_DOT":"0.00002649","MEAN_ELEMENT_THEORY":"SGP4","ECCENTRICITY":"0.00016860","TIME_SYSTEM":"UTC","APOAPSIS":"564.230","ELEMENT_SET_NO":"999","GP_ID":"218505741","OBJECT_TYPE":"PAYLOAD","RA_OF_ASC_NODE":"25.7728","NORAD_CAT_ID":"53192","FILE":"3667517","CLASSIFICATION_TYPE":"U","SITE":"AFWTR","REF_FRAME":"TEME"}];
